ONEWEB-0456             
1 51646U 22012AA  24208.38430303 -.00000272  00000+0 -81663-3 0  9998
2 51646  87.8952 173.6371 0001806  78.9697 281.1633 13.10370009118875
ONEWEB-0457             
1 51647U 22012AB  24208.36109631  .00000719  00000+0  20224-2 0  9993
2 51647  87.8961 173.6670 0002227  90.0909 270.0473 13.10371987118872
ONEWEB-0458             
1 51648U 22012AC  24208.38265566 -.00000212  00000+0 -64374-3 0  9991
2 51648  87.8960 173.6791 0002192  79.6826 280.4549 13.10370431118836
ONEWEB-0461             
1 51649U 22012AD  24208.43714328  .00000033  00000+0  50816-4 0  9999
2 51649  87.9188 143.4038 0002151  79.4307 280.7066 13.17649331122923
ONEWEB-0463             
1 51650U 22012AE  24208.34343428  .00000142  00000+0  33318-3 0  9998
2 51650  87.9191 143.4707 0002144  79.2991 280.8381 13.17648450122697
ONEWEB-0464             
1 51651U 22012AF  24208.37933995  .00000008  00000+0 -14593-4 0  9993
2 51651  87.8959 173.6683 0001829  73.7503 286.3826 13.10370644118852
ONEWEB-0468             
1 51652U 22012AG  24208.38599386 -.00000343  00000+0 -10182-2 0  9998
2 51652  87.8960 173.6599 0002030  81.3890 278.7467 13.10372800118830
ONEWEB-0473             
1 51653U 22012AH  24208.60012247  .00000356  00000+0  98464-3 0  9992
2 51653  87.8958 173.6208 0002104  79.5321 280.6043 13.10370887120169
ONEWEB-0474             
1 51654U 22012AJ  24208.66818441  .00000616  00000+0  17292-2 0  9997
2 51654  87.8954 173.6005 0002107  75.9821 284.1540 13.10372246120150
ONEWEB-0475             
1 51655U 22012AK  24208.35474895  .00000097  00000+0  21648-3 0  9999
2 51655  87.9193 143.4475 0002195  69.8023 290.3345 13.17649530122712
ONEWEB-0490             
1 54113U 22138A   24208.36777572  .00000129  00000+0  28967-3 0  9996
2 54113  87.9121  82.4219 0001739  75.3448 284.7877 13.19725623 85714
ONEWEB-0492             
1 54114U 22138B   24208.39306670  .00000018  00000+0  11743-4 0  9999
2 54114  87.9128  82.4222 0001653  70.4547 289.6764 13.19728626 86599
ONEWEB-0495             
1 54115U 22138C   24208.37093974  .00000109  00000+0  24017-3 0  9996
2 54115  87.9127  82.4380 0001917  53.4159 306.7150 13.19726458 85700
ONEWEB-0497             
1 54116U 22138D   24208.61101889 -.00000201  00000+0 -53324-3 0  9997
2 54116  87.9123  82.3765 0001775  75.6139 284.5191 13.19724852 85725
ONEWEB-0499             
1 54117U 22138E   24208.59364899  .00000087  00000+0  18573-3 0  9994
2 54117  87.9125  82.3830 0002274  73.7053 286.4330 13.19725014 85738
ONEWEB-0500             
1 54118U 22138F   24208.36935505  .00000079  00000+0  16383-3 0  9996
2 54118  87.9126  82.4223 0001705  78.4971 281.6353 13.19726557 85719
ONEWEB-0501             
1 54119U 22138G   24208.62681717  .00000421  00000+0  10194-2 0  9993
2 54119  87.9121  82.3694 0001948  64.2603 295.8730 13.19731794 86592
ONEWEB-0502             
1 54120U 22138H   24208.38514606 -.00000235  00000+0 -61855-3 0  9996
2 54120  87.9122  82.4058 0002013  69.6481 290.4867 13.19724672 85719
ONEWEB-0503             
1 54121U 22138J   24208.60154315 -.00000157  00000+0 -42553-3 0  9996
2 54121  87.9117  82.3694 0002292  81.9218 278.2174 13.19725032 85731
ONEWEB-0504             
1 54122U 22138K   24208.89217763 -.00000014  00000+0 -66865-4 0  9990
2 54122  87.9118  82.3183 0002086  71.6660 288.4699 13.19727122 86653
ONEWEB-0505             
1 54123U 22138L   24208.88901502 -.00000003  00000+0 -39822-4 0  9992
2 54123  87.9117  82.3132 0002068  58.3272 301.8063 13.19727283 86639
ONEWEB-0506             
1 54124U 22138M   24208.40884045  .00000068  00000+0  13793-3 0  9990
2 54124  87.9119  82.4060 0001820  71.6645 288.4685 13.19725999 86564
ONEWEB-0507             
1 54125U 22138N   24208.88427477  .00000034  00000+0  53135-4 0  9993
2 54125  87.9127  82.3358 0001713  69.7850 290.3467 13.19727449 86674
ONEWEB-0508             
1 54126U 22138P   24208.88112076 -.00000039  00000+0 -12935-3 0  9999
2 54126  87.9126  82.3287 0001653  64.0914 296.0388 13.19727706 86656
ONEWEB-0509             
1 54127U 22138Q   24208.62839382 -.00000026  00000+0 -97108-4 0  9990
2 54127  87.9118  82.3633 0001840  73.6525 286.4810 13.19726359 86594
ONEWEB-0510             
1 54128U 22138R   24208.07803600 -.00000003  00000+0 -38327-4 0  9997
2 54128  87.9191  51.9197 0001524  99.5759 260.5547 13.20773418 88051
ONEWEB-0511             
1 54129U 22138S   24208.62523311 -.00000151  00000+0 -40924-3 0  9996
2 54129  87.9119  82.3671 0002208  76.9157 283.2222 13.19725756 85754
ONEWEB-0512             
1 54130U 22138T   24208.16243848  .00000047  00000+0  83932-4 0  9990
2 54130  87.9129  82.4787 0001910  63.6237 296.5091 13.19726510 85667
ONEWEB-0513             
1 54131U 22138U   24208.89137105 -.00000003  00000+0 -38904-4 0  9992
2 54131  87.9125  82.3266 0002191  66.0620 294.0742 13.19723675 86510
ONEWEB-0514             
1 54132U 22138V   24208.40568615  .00000028  00000+0  37424-4 0  9995
2 54132  87.9120  82.4179 0001859  80.6463 279.4880 13.19726391 86582
ONEWEB-0515             
1 54133U 22138W   24208.82298467  .00000075  00000+0  15206-3 0  9992
2 54133  87.9189  51.7509 0001417 121.4232 238.7040 13.20770794 89040
ONEWEB-0516             
1 54134U 22138X   24208.91112989  .00000108  00000+0  23639-3 0  9993
2 54134  87.9129  82.3307 0001747  76.7062 283.4266 13.19724422 86656
ONEWEB-0517             
1 54135U 22138Y   24208.89059742 -.00000011  00000+0 -59755-4 0  9992
2 54135  87.9117  82.3171 0002318  81.0345 279.1050 13.19726568 86657
ONEWEB-0518             
1 54136U 22138Z   24208.90954964  .00000074  00000+0  15268-3 0  9992
2 54136  87.9123  82.3290 0001916  78.4384 281.6964 13.19726763 86652
ONEWEB-0519             
1 54137U 22138AA  24208.17665258  .00000043  00000+0  75903-4 0  9996
2 54137  87.9122  82.4547 0002128  70.6799 289.4564 13.19726441 85696
ONEWEB-0520             
1 54138U 22138AB  24208.59048715  .00000077  00000+0  16096-3 0  9990
2 54138  87.9122  82.3753 0001848  63.1564 296.9758 13.19726857 85734
ONEWEB-0521             
1 54139U 22138AC  24208.16875126  .00000050  00000+0  91595-4 0  9997
2 54139  87.9121  82.4514 0002037  82.0645 278.0718 13.19727251 85625
ONEWEB-0522             
1 54140U 22138AD  24208.90638962  .00000006  00000+0 -18169-4 0  9994
2 54140  87.9116  82.3063 0001727  77.3017 282.8309 13.19726710 86634
ONEWEB-0523             
1 54141U 22138AE  24208.58307626  .00000047  00000+0  83096-4 0  9994
2 54141  87.9187  51.8277 0002061 111.9851 248.1502 13.20773503 88146
ONEWEB-0524             
1 54142U 22138AF  24208.79931594 -.00000006  00000+0 -47217-4 0  9997
2 54142  87.9183  51.7879 0001007 119.1430 240.9804 13.20770714 89048
ONEWEB-0525             
1 54143U 22138AG  24208.16717101  .00000029  00000+0  40464-4 0  9995
2 54143  87.9122  82.4637 0001870  67.1160 293.0170 13.19727482 85688
ONEWEB-0526             
1 54144U 22138AH  24208.88269990 -.00000034  00000+0 -11632-3 0  9995
2 54144  87.9118  82.3153 0001771  76.0709 284.0620 13.19726403 86621
ONEWEB-0529             
1 54145U 22138AJ  24208.88586093  .00000009  00000+0 -96142-5 0  9994
2 54145  87.9126  82.3326 0001777  67.9083 292.2238 13.19725231 86649
ONEWEB-0531             
1 54146U 22138AK  24208.10329867  .00000087  00000+0  18224-3 0  9992
2 54146  87.9186  51.9178 0001676 127.6752 232.4533 13.20771818 88086
ONEWEB-0535             
1 54147U 22138AL  24208.61575529 -.00000206  00000+0 -54717-3 0  9999
2 54147  87.9117  82.3669 0001740  86.4889 273.6443 13.19724025 85753
ONEWEB-0536             
1 54148U 22138AM  24208.84823420  .00000055  00000+0  10329-3 0  9992
2 54148  87.9184  51.8180 0002294 112.3489 247.7888 13.20773007 89044
ONEWEB-0527             
1 54642U 22166A   24208.44165463  .00000028  00000+0  36920-4 0  9990
2 54642  87.9285  21.5016 0001724  92.2835 267.8496 13.21826568 80282
ONEWEB-0528             
1 54643U 22166B   24208.44795054  .00000031  00000+0  44758-4 0  9998
2 54643  87.9291  21.4885 0001699  85.7708 274.3620 13.21827767 80295
ONEWEB-0539             
1 54644U 22166C   24208.40853026  .00000025  00000+0  28573-4 0  9999
2 54644  87.9291  21.4989 0002031  90.0579 270.0787 13.21827085 80286
ONEWEB-0540             
1 54645U 22166D   24208.47871430  .00000065  00000+0  12560-3 0  9998
2 54645  87.9284  21.5016 0002044  86.1198 274.0169 13.21826591 80287
ONEWEB-0542             
1 54646U 22166E   24208.41800788  .00000037  00000+0  58005-4 0  9995
2 54646  87.9289  21.4967 0002312  92.3079 267.8320 13.21825538 80281
ONEWEB-0545             
1 54647U 22166F   24208.76336467 -.00000109  00000+0 -29609-3 0  9991
2 54647  87.9280  21.4452 0002217  82.9345 277.2041 13.21826240 80766
ONEWEB-0580             
1 54648U 22166G   24208.43376427  .00000093  00000+0  19276-3 0  9995
2 54648  87.9289  21.4824 0002412  92.6268 267.5142 13.21827220 80299
ONEWEB-0582             
1 54649U 22166H   24208.77913382 -.00000032  00000+0 -10929-3 0  9991
2 54649  87.9285  21.4498 0002549  95.1388 265.0037 13.21826616 80783
ONEWEB-0583             
1 54650U 22166J   24208.41168558  .00000026  00000+0  30491-4 0  9999
2 54650  87.9285  21.5219 0001859  89.7748 270.3599 13.21826775 80271
ONEWEB-0584             
1 54651U 22166K   24208.73497917  .00000086  00000+0  17748-3 0  9994
2 54651  87.9291  21.4258 0002212  91.4185 268.7202 13.21826579 80779
ONEWEB-0585             
1 54652U 22166L   24208.76020109  .00000061  00000+0  11513-3 0  9990
2 54652  87.9291  21.4304 0001745  91.4316 268.7018 13.21827226 80784
ONEWEB-0586             
1 54653U 22166M   24208.77282172  .00000003  00000+0 -24650-4 0  9996
2 54653  87.9286  21.4404 0002080  89.1101 271.0272 13.21824788 80788
ONEWEB-0587             
1 54654U 22166N   24208.40379502  .00000006  00000+0 -15829-4 0  9992
2 54654  87.9281  21.4680 0001565  92.6611 267.4702 13.21824194 80421
